[{"OBJECT_NAME":"STARLINK-31314","OBJECT_ID":"2024-031C","EPOCH":"2026-03-09T20:45:53.244576","MEAN_MOTION":15.30195953,"ECCENTRICITY":5.118e-5,"INCLINATION":53.1592,"RA_OF_ASC_NODE":295.6274,"ARG_OF_PERICENTER":106.017,"MEAN_ANOMALY":254.0888,"EPHEMERIS_TYPE":0,"CLASSIFICATION_TYPE":"U","NORAD_CAT_ID":58967,"ELEMENT_SET_NO":999,"REV_AT_EPOCH":11656,"BSTAR":-8.8718506e-5,"MEAN_MOTION_DOT":-2.985e-5,"MEAN_MOTION_DDOT":0},{"OBJECT_NAME":"CZ-6A DEB","OBJECT_ID":"2022-151QV","EPOCH":"2026-03-09T04:36:08.895168","MEAN_MOTION":15.24642942,"ECCENTRICITY":0.00273347,"INCLINATION":98.639,"RA_OF_ASC_NODE":154.2763,"ARG_OF_PERICENTER":174.5721,"MEAN_ANOMALY":185.5815,"EPHEMERIS_TYPE":0,"CLASSIFICATION_TYPE":"U","NORAD_CAT_ID":54908,"ELEMENT_SET_NO":999,"REV_AT_EPOCH":17373,"BSTAR":0.0098290719,"MEAN_MOTION_DOT":0.00253193,"MEAN_MOTION_DDOT":0}]
